STARS (KUKAI)           
1 33498U 09002G   26185.81231244  .00007292  00000+0  65663-3 0  9993
2 33498  98.1559 133.8416 0010276 108.0786 252.1554 14.95883529941112
KKS-1 (KISEKI)          
1 33499U 09002H   26186.33727497  .00001821  00000+0  22988-3 0  9997
2 33499  98.1181 109.0670 0006691 224.3140 135.7538 14.83173911938885
UK-DMC 2                
1 35683U 09041C   26186.66443354  .00001181  00000+0  17839-3 0  9998
2 35683  97.8864 321.1815 0001318  98.8566 261.2793 14.76085151909292
OCEANSAT-2              
1 35931U 09051A   26186.57144956 -.00000207  00000+0 -11572-3 0  9999
2 35931  98.2318 171.5877 0016687 181.4669 178.6452 13.99658169881909
SWISSCUBE               
1 35932U 09051B   26186.23066220  .00001420  00000+0  28964-3 0  9999
2 35932  98.4020  94.4325 0007267 146.4671 213.6991 14.62518995891790
BEESAT-1                
1 35933U 09051C   26186.31796618  .00001176  00000+0  24572-3 0  9999
2 35933  98.3947  94.1185 0005491 156.8221 203.3228 14.61752110891834
ITUPSAT1                
1 35935U 09051E   26185.70814032  .00001186  00000+0  25471-3 0  9994
2 35935  98.4031  92.6727 0007316 174.2685 185.8600 14.60469280891292
DMSP 5D-3 F18 (USA 210) 
1 35951U 09057A   26186.59788986  .00000275  00000+0  16547-3 0  9996
2 35951  98.9047 167.3277 0010661 192.8844 167.2058 14.14907412862193
PROBA-2                 
1 36037U 09059B   26186.12208704  .00000279  00000+0  75599-4 0  9995
2 36037  98.2456   9.2266 0012346 221.2045 138.8221 14.54870815884134
YAOGAN-7                
1 36110U 09069A   26186.23212031  .00000714  00000+0  10575-3 0  9994
2 36110  98.0048  71.9860 0024218 344.4635  15.5829 14.78029623892291
XIWANG-1 (HOPE-1)       
1 36122U 09072B   26186.63567001 -.00000330  00000+0 -74895-3 0  9996
2 36122 100.4037 140.1741 0007254 186.7220 173.3797 13.16437772795439
COSMOS 2463             
1 36519U 10017A   26186.28211029  .00000042  00000+0  29667-4 0  9990
2 36519  82.9590 236.4115 0037589  80.4563 348.7779 13.71666782810415
CARTOSAT-2B             
1 36795U 10035A   26186.61068383  .00000710  00000+0  10406-3 0  9998
2 36795  97.9937 237.0425 0012241 126.8528 233.3808 14.78608671862574
YAOGAN-10               
1 36834U 10038A   26186.62386457  .00003582  00000+0  42203-3 0  9991
2 36834  97.8965 209.8813 0001570  84.8718  67.0672 14.85410212859941
SHIJIAN-6 04B (SJ-6 04B)
1 37180U 10051B   26186.57593063  .00001901  00000+0  16039-3 0  9999
2 37180  97.8733 192.1807 0006915 245.8323 114.2177 14.99374955858431
FENGYUN 3B              
1 37214U 10059A   26186.64129045  .00000563  00000+0  31422-3 0  9994
2 37214  98.9605 232.7334 0022846 132.5681  37.5405 14.14847618810038
COSMO-SKYMED 4          
1 37216U 10060A   26186.67158374  .00001001  00000+0  13228-3 0  9990
2 37216  97.8891  10.0031 0001484  86.4517 273.6866 14.82162322847307
O/OREOS (USA 219)       
1 37224U 10062C   26186.54537451  .00003118  00000+0  29896-3 0  9993
2 37224  71.9706  38.7521 0013384  24.3378 335.8422 14.93826313119381
RESOURCESAT-2           
1 37387U 11015A   26186.38855274  .00000138  00000+0  83183-4 0  9999
2 37387  98.7636 253.7040 0011005 199.1708 160.9057 14.21604661788767
YOUTHSAT                
1 37388U 11015B   26185.91168389  .00000235  00000+0  11663-3 0  9993
2 37388  98.3693 159.1674 0013305 292.2738 122.0626 14.25637773790164
APRIZESAT 6             
1 37793U 11044F   26186.31363234  .00001155  00000+0  16946-3 0  9997
2 37793  98.2348  97.1823 0043824  29.5739  85.5721 14.76947084799824
JUGNU                   
1 37839U 11058B   26186.37879829  .00000433  00000+0  86320-4 0  9993
2 37839  19.9587 197.9065 0018343 277.3862 215.8829 14.13781489761603
SRMSAT                  
1 37841U 11058D   26186.61154329  .00000404  00000+0  75655-4 0  9991
2 37841  19.9728 307.9551 0011862  46.8223  73.4725 14.11579637760425
SUOMI NPP               
1 37849U 11061A   26186.59641194  .00000097  00000+0  67039-4 0  9996
2 37849  98.7955 127.3470 0000591 289.1282  70.9830 14.19521299761056
