OBJECT_NAME,OBJECT_ID,EPOCH,MEAN_MOTION,ECCENTRICITY,INCLINATION,RA_OF_ASC_NODE,ARG_OF_PERICENTER,MEAN_ANOMALY,EPHEMERIS_TYPE,CLASSIFICATION_TYPE,NORAD_CAT_ID,ELEMENT_SET_NO,REV_AT_EPOCH,BSTAR,MEAN_MOTION_DOT,MEAN_MOTION_DDOT
STARS (KUKAI),2009-002G,2026-07-04T19:29:43.794816,14.95883529,.00102762,98.1559,133.8416,108.0786,252.1554,0,U,33498,999,94111,.65662659E-3,.7292E-4,0
KKS-1 (KISEKI),2009-002H,2026-07-05T08:05:40.557408,14.83173911,.0006692,98.1181,109.0670,224.3140,135.7538,0,U,33499,999,93888,.22988E-3,.1821E-4,0
UK-DMC 2,2009-041C,2026-07-05T15:56:47.057856,14.76085151,.00013187,97.8864,321.1815,98.8566,261.2793,0,U,35683,999,90929,.17839011E-3,.1181E-4,0
OCEANSAT-2,2009-051A,2026-07-05T13:42:53.241984,13.99658169,.00166878,98.2318,171.5877,181.4669,178.6452,0,U,35931,999,88190,-.11572001E-3,-.207E-5,0
SWISSCUBE,2009-051B,2026-07-05T05:32:09.214080,14.62518995,.0007267,98.4020,94.4325,146.4671,213.6991,0,U,35932,999,89179,.28964E-3,.142E-4,0
BEESAT-1,2009-051C,2026-07-05T07:37:52.277088,14.61752110,.0005492,98.3947,94.1185,156.8221,203.3228,0,U,35933,999,89183,.24572E-3,.1176E-4,0
ITUPSAT1,2009-051E,2026-07-04T16:59:43.323648,14.60469280,.00073167,98.4031,92.6727,174.2685,185.8600,0,U,35935,999,89129,.2547061E-3,.1186E-4,0
DMSP 5D-3 F18 (USA 210),2009-057A,2026-07-05T14:20:57.683904,14.14907412,.0010661,98.9047,167.3277,192.8844,167.2058,0,U,35951,999,86219,.16547215E-3,.275E-5,0
PROBA-2,2009-059B,2026-07-05T02:55:48.320256,14.54870815,.0012346,98.2456,9.2266,221.2045,138.8221,0,U,36037,999,88413,.75599E-4,.279E-5,0
YAOGAN-7,2009-069A,2026-07-05T05:34:15.193920,14.78029623,.0024218,98.0048,71.9860,344.4635,15.5829,0,U,36110,999,89229,.10575E-3,.714E-5,0
XIWANG-1 (HOPE-1),2009-072B,2026-07-05T15:15:21.888864,13.16437772,.00072541,100.4037,140.1741,186.7220,173.3797,0,U,36122,999,79543,-.74895242E-3,-.33E-5,0
COSMOS 2463,2010-017A,2026-07-05T06:46:14.329056,13.71666782,.003759,82.9590,236.4115,80.4563,348.7779,0,U,36519,999,81041,.29667E-4,.42E-6,0
CARTOSAT-2B,2010-035A,2026-07-05T14:39:23.082912,14.78608671,.00122417,97.9937,237.0425,126.8528,233.3808,0,U,36795,999,86257,.10405956E-3,.71E-5,0
YAOGAN-10,2010-038A,2026-07-05T14:58:21.898848,14.85410212,.00015707,97.8965,209.8813,84.8718,67.0672,0,U,36834,999,85994,.4220318E-3,.3582E-4,0
SHIJIAN-6 04B (SJ-6 04B),2010-051B,2026-07-05T13:49:20.406432,14.99374955,.00069157,97.8733,192.1807,245.8323,114.2177,0,U,37180,999,85843,.16038943E-3,.1901E-4,0
FENGYUN 3B,2010-059A,2026-07-05T15:23:27.494880,14.14847618,.00228466,98.9605,232.7334,132.5681,37.5405,0,U,37214,999,81003,.31421901E-3,.563E-5,0
COSMO-SKYMED 4,2010-060A,2026-07-05T16:07:04.835136,14.82162322,.00014842,97.8891,10.0031,86.4517,273.6866,0,U,37216,999,84730,.13227924E-3,.1001E-4,0
O/OREOS (USA 219),2010-062C,2026-07-05T13:05:20.356800,14.93826313,.0013384,71.9706,38.7521,24.3378,335.8422,0,U,37224,999,11938,.29896E-3,.3118E-4,0
RESOURCESAT-2,2011-015A,2026-07-05T09:19:30.955872,14.21604661,.0011006,98.7636,253.7040,199.1708,160.9057,0,U,37387,999,78876,.83183E-4,.138E-5,0
YOUTHSAT,2011-015B,2026-07-04T21:52:49.488096,14.25637773,.0013305,98.3693,159.1674,292.2738,122.0626,0,U,37388,999,79016,.11663E-3,.235E-5,0
APRIZESAT 6,2011-044F,2026-07-05T07:31:37.834176,14.76947084,.0043824,98.2348,97.1823,29.5739,85.5721,0,U,37793,999,79982,.16946E-3,.1155E-4,0
JUGNU,2011-058B,2026-07-05T09:05:28.172256,14.13781489,.0018343,19.9587,197.9065,277.3862,215.8829,0,U,37839,999,76160,.8632E-4,.433E-5,0
SRMSAT,2011-058D,2026-07-05T14:40:37.340256,14.11579637,.00118628,19.9728,307.9551,46.8223,73.4725,0,U,37841,999,76042,.75654927E-4,.404E-5,0
SUOMI NPP,2011-061A,2026-07-05T14:18:49.991616,14.19521299,.00005915,98.7955,127.3470,289.1282,70.9830,0,U,37849,999,76105,.67039319E-4,.97E-6,0
